STARLINK-1366           
1 45569U 20025AQ  26068.20531678  .00111184  00000+0  70244-3 0  9997
2 45569  53.0440  40.9129 0008507  56.1589 304.0238 15.75756697325969
STARLINK-11715 [DTC]    
1 64076U 25107N   26068.45613955  .00325940  00000+0  24373-2 0  9991
2 64076  42.9999  99.4291 0000390 331.6636  28.4210 15.70916450 47265
