[{"OBJECT_NAME":"STARLINK-1366","OBJECT_ID":"2020-025AQ","EPOCH":"2026-03-09T04:55:39.369792","MEAN_MOTION":15.75756697,"ECCENTRICITY":0.00085074,"INCLINATION":53.044,"RA_OF_ASC_NODE":40.9129,"ARG_OF_PERICENTER":56.1589,"MEAN_ANOMALY":304.0238,"EPHEMERIS_TYPE":0,"CLASSIFICATION_TYPE":"U","NORAD_CAT_ID":45569,"ELEMENT_SET_NO":999,"REV_AT_EPOCH":32596,"BSTAR":0.00070244107,"MEAN_MOTION_DOT":0.00111184,"MEAN_MOTION_DDOT":0},{"OBJECT_NAME":"STARLINK-11715 [DTC]","OBJECT_ID":"2025-107N","EPOCH":"2026-03-09T10:56:50.457120","MEAN_MOTION":15.7091645,"ECCENTRICITY":3.906e-5,"INCLINATION":42.9999,"RA_OF_ASC_NODE":99.4291,"ARG_OF_PERICENTER":331.6636,"MEAN_ANOMALY":28.421,"EPHEMERIS_TYPE":0,"CLASSIFICATION_TYPE":"U","NORAD_CAT_ID":64076,"ELEMENT_SET_NO":999,"REV_AT_EPOCH":4726,"BSTAR":0.0024373248,"MEAN_MOTION_DOT":0.0032594,"MEAN_MOTION_DDOT":0}]
